{
    "links": {
        "self": "http://www.neowsapp.com/rest/v1/neo/54016604?api_key=iIulBulltgU6a56xZRHN4H3l9WmuAYTsLGpBGhQ2"
    },
    "id": "54016604",
    "neo_reference_id": "54016604",
    "name": "(2020 HQ1)",
    "designation": "2020 HQ1",
    "nasa_jpl_url": "http://ssd.jpl.nasa.gov/sbdb.cgi?sstr=54016604",
    "absolute_magnitude_h": 23.552,
    "estimated_diameter": {
        "kilometers": {
            "estimated_diameter_min": 0.0517791571,
            "estimated_diameter_max": 0.1157817152
        },
        "meters": {
            "estimated_diameter_min": 51.7791571265,
            "estimated_diameter_max": 115.7817151524
        },
        "miles": {
            "estimated_diameter_min": 0.0321740666,
            "estimated_diameter_max": 0.0719434001
        },
        "feet": {
            "estimated_diameter_min": 169.8791298668,
            "estimated_diameter_max": 379.8612823407
        }
    },
    "is_potentially_hazardous_asteroid": false,
    "close_approach_data": [
        {
            "close_approach_date": "1908-04-08",
            "close_approach_date_full": "1908-Apr-08 13:56",
            "epoch_date_close_approach": -1948097040000,
            "relative_velocity": {
                "kilometers_per_second": "10.9867366041",
                "kilometers_per_hour": "39552.2517746963",
                "miles_per_hour": "24576.2311096717"
            },
            "miss_distance": {
                "astronomical": "0.0506710971",
                "lunar": "19.7110567719",
                "kilometers": "7580288.196723177",
                "miles": "4710172.6718347626"
            },
            "orbiting_body": "Earth"
        },
        {
            "close_approach_date": "1909-12-07",
            "close_approach_date_full": "1909-Dec-07 15:44",
            "epoch_date_close_approach": -1895559360000,
            "relative_velocity": {
                "kilometers_per_second": "13.7521168729",
                "kilometers_per_hour": "49507.6207424422",
                "miles_per_hour": "30762.1102329914"
            },
            "miss_distance": {
                "astronomical": "0.1519189546",
                "lunar": "59.0964733394",
                "kilometers": "22726752.020786702",
                "miles": "14121748.8715204076"
            },
            "orbiting_body": "Earth"
        },
        {
            "close_approach_date": "2020-04-05",
            "close_approach_date_full": "2020-Apr-05 12:51",
            "epoch_date_close_approach": 1586091060000,
            "relative_velocity": {
                "kilometers_per_second": "10.244817353",
                "kilometers_per_hour": "36881.3424706272",
                "miles_per_hour": "22916.6319368183"
            },
            "miss_distance": {
                "astronomical": "0.0549475055",
                "lunar": "21.3745796395",
                "kilometers": "8220029.784613285",
                "miles": "5107689.661441933"
            },
            "orbiting_body": "Earth"
        },
        {
            "close_approach_date": "2021-12-06",
            "close_approach_date_full": "2021-Dec-06 08:16",
            "epoch_date_close_approach": 1638778560000,
            "relative_velocity": {
                "kilometers_per_second": "14.8067459088",
                "kilometers_per_hour": "53304.2852716296",
                "miles_per_hour": "33121.2099233634"
            },
            "miss_distance": {
                "astronomical": "0.1787041487",
                "lunar": "69.5159138443",
                "kilometers": "26733760.005683269",
                "miles": "16611588.1779523522"
            },
            "orbiting_body": "Earth"
        }
    ],
    "orbital_data": {
        "orbit_id": "6",
        "orbit_determination_date": "2020-05-15 06:53:15",
        "first_observation_date": "2020-04-18",
        "last_observation_date": "2020-05-15",
        "data_arc_in_days": 27,
        "observations_used": 41,
        "orbit_uncertainty": "7",
        "minimum_orbit_intersection": ".0521638",
        "jupiter_tisserand_invariant": "4.359",
        "epoch_osculation": "2459000.5",
        "eccentricity": ".4473675692389682",
        "semi_major_axis": "1.533366108738252",
        "inclination": "6.141538450362295",
        "ascending_node_longitude": "171.2684058860011",
        "orbital_period": "693.533137663886",
        "perihelion_distance": ".847387839918605",
        "perihelion_argument": "330.9618858849195",
        "aphelion_distance": "2.2193443775579",
        "perihelion_time": "2458905.337163222163",
        "mean_anomaly": "49.39723767982997",
        "mean_motion": ".519081180767559",
        "equinox": "J2000",
        "orbit_class": {
            "orbit_class_type": "APO",
            "orbit_class_description": "Near-Earth asteroid orbits which cross the Earth’s orbit similar to that of 1862 Apollo",
            "orbit_class_range": "a (semi-major axis) > 1.0 AU; q (perihelion) < 1.017 AU"
        }
    },
    "is_sentry_object": false
}